[{"OBJECT_NAME":"STARLINK-31333","OBJECT_ID":"2024-031G","EPOCH":"2025-08-06T08:56:08.883456","MEAN_MOTION":15.30176072,"ECCENTRICITY":0.00011418,"INCLINATION":53.1601,"RA_OF_ASC_NODE":204.2913,"ARG_OF_PERICENTER":99.5476,"MEAN_ANOMALY":260.5654,"EPHEMERIS_TYPE":0,"CLASSIFICATION_TYPE":"U","NORAD_CAT_ID":58971,"ELEMENT_SET_NO":999,"REV_AT_EPOCH":8374,"BSTAR":-3.6437356e-5,"MEAN_MOTION_DOT":-1.437e-5,"MEAN_MOTION_DDOT":0},{"OBJECT_NAME":"STARLINK-31351","OBJECT_ID":"2024-031H","EPOCH":"2025-08-06T06:40:19.673472","MEAN_MOTION":15.3019451,"ECCENTRICITY":0.00012108,"INCLINATION":53.1597,"RA_OF_ASC_NODE":217.1903,"ARG_OF_PERICENTER":75.851,"MEAN_ANOMALY":284.2625,"EPHEMERIS_TYPE":0,"CLASSIFICATION_TYPE":"U","NORAD_CAT_ID":58972,"ELEMENT_SET_NO":999,"REV_AT_EPOCH":8354,"BSTAR":9.732434e-6,"MEAN_MOTION_DOT":-7.1e-7,"MEAN_MOTION_DDOT":0},{"OBJECT_NAME":"STARLINK-31365","OBJECT_ID":"2024-031J","EPOCH":"2025-08-06T06:49:26.863680","MEAN_MOTION":15.30192541,"ECCENTRICITY":0.00012883,"INCLINATION":53.1603,"RA_OF_ASC_NODE":217.2319,"ARG_OF_PERICENTER":89.5582,"MEAN_ANOMALY":270.5567,"EPHEMERIS_TYPE":0,"CLASSIFICATION_TYPE":"U","NORAD_CAT_ID":58973,"ELEMENT_SET_NO":999,"REV_AT_EPOCH":8355,"BSTAR":1.338004e-5,"MEAN_MOTION_DOT":3.7e-7,"MEAN_MOTION_DDOT":0},{"OBJECT_NAME":"STARLINK-31361","OBJECT_ID":"2024-031K","EPOCH":"2025-08-06T06:44:53.236608","MEAN_MOTION":15.30196301,"ECCENTRICITY":0.00012594,"INCLINATION":53.1599,"RA_OF_ASC_NODE":217.2123,"ARG_OF_PERICENTER":85.6382,"MEAN_ANOMALY":274.4762,"EPHEMERIS_TYPE":0,"CLASSIFICATION_TYPE":"U","NORAD_CAT_ID":58974,"ELEMENT_SET_NO":999,"REV_AT_EPOCH":8355,"BSTAR":7.404591e-6,"MEAN_MOTION_DOT":-1.4e-6,"MEAN_MOTION_DDOT":0},{"OBJECT_NAME":"STARLINK-31369","OBJECT_ID":"2024-031L","EPOCH":"2025-08-06T06:54:00.553824","MEAN_MOTION":15.30191738,"ECCENTRICITY":0.00010417,"INCLINATION":53.1592,"RA_OF_ASC_NODE":217.2498,"ARG_OF_PERICENTER":82.9223,"MEAN_ANOMALY":277.1897,"EPHEMERIS_TYPE":0,"CLASSIFICATION_TYPE":"U","NORAD_CAT_ID":58975,"ELEMENT_SET_NO":999,"REV_AT_EPOCH":8353,"BSTAR":2.1122265e-5,"MEAN_MOTION_DOT":2.66e-6,"MEAN_MOTION_DDOT":0},{"OBJECT_NAME":"STARLINK-31324","OBJECT_ID":"2024-031M","EPOCH":"2025-08-06T06:58:33.935520","MEAN_MOTION":15.30193902,"ECCENTRICITY":0.00011457,"INCLINATION":53.1595,"RA_OF_ASC_NODE":217.2692,"ARG_OF_PERICENTER":88.7463,"MEAN_ANOMALY":271.3669,"EPHEMERIS_TYPE":0,"CLASSIFICATION_TYPE":"U","NORAD_CAT_ID":58976,"ELEMENT_SET_NO":999,"REV_AT_EPOCH":8353,"BSTAR":1.2917151e-5,"MEAN_MOTION_DOT":2.3e-7,"MEAN_MOTION_DDOT":0},{"OBJECT_NAME":"STARLINK-31358","OBJECT_ID":"2024-031N","EPOCH":"2025-08-06T17:09:49.487040","MEAN_MOTION":15.30198862,"ECCENTRICITY":0.00014,"INCLINATION":53.1594,"RA_OF_ASC_NODE":214.9316,"ARG_OF_PERICENTER":70.6469,"MEAN_ANOMALY":289.4683,"EPHEMERIS_TYPE":0,"CLASSIFICATION_TYPE":"U","NORAD_CAT_ID":58977,"ELEMENT_SET_NO":999,"REV_AT_EPOCH":8360,"BSTAR":5.3642865e-5,"MEAN_MOTION_DOT":1.23e-5,"MEAN_MOTION_DDOT":0},{"OBJECT_NAME":"STARLINK-31355","OBJECT_ID":"2024-031P","EPOCH":"2025-08-06T10:11:14.487936","MEAN_MOTION":15.30184254,"ECCENTRICITY":0.00011394,"INCLINATION":53.1591,"RA_OF_ASC_NODE":216.6821,"ARG_OF_PERICENTER":85.582,"MEAN_ANOMALY":274.5311,"EPHEMERIS_TYPE":0,"CLASSIFICATION_TYPE":"U","NORAD_CAT_ID":58978,"ELEMENT_SET_NO":999,"REV_AT_EPOCH":8355,"BSTAR":-4.1317868e-5,"MEAN_MOTION_DOT":-1.582e-5,"MEAN_MOTION_DDOT":0},{"OBJECT_NAME":"STARLINK-31380","OBJECT_ID":"2024-031Q","EPOCH":"2025-08-06T16:32:00.306816","MEAN_MOTION":15.30193035,"ECCENTRICITY":0.00012184,"INCLINATION":53.1591,"RA_OF_ASC_NODE":215.4888,"ARG_OF_PERICENTER":95.3915,"MEAN_ANOMALY":264.7225,"EPHEMERIS_TYPE":0,"CLASSIFICATION_TYPE":"U","NORAD_CAT_ID":58979,"ELEMENT_SET_NO":999,"REV_AT_EPOCH":8359,"BSTAR":2.056688e-6,"MEAN_MOTION_DOT":-2.98e-6,"MEAN_MOTION_DDOT":0},{"OBJECT_NAME":"STARLINK-31353","OBJECT_ID":"2024-031R","EPOCH":"2025-08-06T16:28:57.810144","MEAN_MOTION":15.30194948,"ECCENTRICITY":0.00010814,"INCLINATION":53.159,"RA_OF_ASC_NODE":215.4784,"ARG_OF_PERICENTER":90.9116,"MEAN_ANOMALY":269.2009,"EPHEMERIS_TYPE":0,"CLASSIFICATION_TYPE":"U","NORAD_CAT_ID":58980,"ELEMENT_SET_NO":999,"REV_AT_EPOCH":8359,"BSTAR":1.1305481e-5,"MEAN_MOTION_DOT":-2.4e-7,"MEAN_MOTION_DDOT":0},{"OBJECT_NAME":"STARLINK-31339","OBJECT_ID":"2024-031S","EPOCH":"2025-08-06T08:46:18.057792","MEAN_MOTION":15.30189891,"ECCENTRICITY":0.00011015,"INCLINATION":53.1587,"RA_OF_ASC_NODE":217.025,"ARG_OF_PERICENTER":93.4832,"MEAN_ANOMALY":266.6295,"EPHEMERIS_TYPE":0,"CLASSIFICATION_TYPE":"U","NORAD_CAT_ID":58981,"ELEMENT_SET_NO":999,"REV_AT_EPOCH":8354,"BSTAR":-1.7020239e-5,"MEAN_MOTION_DOT":-8.63e-6,"MEAN_MOTION_DDOT":0},{"OBJECT_NAME":"STARLINK-31384","OBJECT_ID":"2024-031U","EPOCH":"2025-08-06T21:27:50.247648","MEAN_MOTION":15.30193862,"ECCENTRICITY":0.00011052,"INCLINATION":53.1583,"RA_OF_ASC_NODE":214.6364,"ARG_OF_PERICENTER":91.4639,"MEAN_ANOMALY":268.6488,"EPHEMERIS_TYPE":0,"CLASSIFICATION_TYPE":"U","NORAD_CAT_ID":58983,"ELEMENT_SET_NO":999,"REV_AT_EPOCH":8362,"BSTAR":2.731725e-5,"MEAN_MOTION_DOT":4.5e-6,"MEAN_MOTION_DDOT":0},{"OBJECT_NAME":"STARLINK-31379","OBJECT_ID":"2024-031V","EPOCH":"2025-08-06T21:33:55.149408","MEAN_MOTION":15.3019006,"ECCENTRICITY":0.00012587,"INCLINATION":53.1591,"RA_OF_ASC_NODE":214.6628,"ARG_OF_PERICENTER":70.2756,"MEAN_ANOMALY":289.8381,"EPHEMERIS_TYPE":0,"CLASSIFICATION_TYPE":"U","NORAD_CAT_ID":58984,"ELEMENT_SET_NO":999,"REV_AT_EPOCH":8362,"BSTAR":9.070247e-6,"MEAN_MOTION_DOT":-9.1e-7,"MEAN_MOTION_DDOT":0},{"OBJECT_NAME":"STARLINK-31385","OBJECT_ID":"2024-031W","EPOCH":"2025-08-06T16:16:02.116128","MEAN_MOTION":15.30195958,"ECCENTRICITY":0.00012223,"INCLINATION":53.1595,"RA_OF_ASC_NODE":213.2501,"ARG_OF_PERICENTER":86.6223,"MEAN_ANOMALY":273.4918,"EPHEMERIS_TYPE":0,"CLASSIFICATION_TYPE":"U","NORAD_CAT_ID":58985,"ELEMENT_SET_NO":999,"REV_AT_EPOCH":8362,"BSTAR":9.568762e-6,"MEAN_MOTION_DOT":-7.6e-7,"MEAN_MOTION_DDOT":0},{"OBJECT_NAME":"STARLINK-31229","OBJECT_ID":"2024-031X","EPOCH":"2025-08-06T09:10:36.498432","MEAN_MOTION":15.30189165,"ECCENTRICITY":0.00012775,"INCLINATION":53.159,"RA_OF_ASC_NODE":217.1283,"ARG_OF_PERICENTER":92.951,"MEAN_ANOMALY":267.1637,"EPHEMERIS_TYPE":0,"CLASSIFICATION_TYPE":"U","NORAD_CAT_ID":58986,"ELEMENT_SET_NO":999,"REV_AT_EPOCH":8354,"BSTAR":-5.762622e-5,"MEAN_MOTION_DOT":-2.065e-5,"MEAN_MOTION_DDOT":0},{"OBJECT_NAME":"STARLINK-31468","OBJECT_ID":"2024-036A","EPOCH":"2025-08-06T20:17:46.402944","MEAN_MOTION":15.30195782,"ECCENTRICITY":0.00012452,"INCLINATION":53.162,"RA_OF_ASC_NODE":355.7878,"ARG_OF_PERICENTER":81.8072,"MEAN_ANOMALY":278.307,"EPHEMERIS_TYPE":0,"CLASSIFICATION_TYPE":"U","NORAD_CAT_ID":58998,"ELEMENT_SET_NO":999,"REV_AT_EPOCH":8244,"BSTAR":2.5927737e-5,"MEAN_MOTION_DOT":4.09e-6,"MEAN_MOTION_DDOT":0}]
