STARLINK-31333          
1 58971U 24031G   25218.37232504 -.00001437  00000+0 -36437-4 0  9997
2 58971  53.1601 204.2913 0001141  99.5476 260.5654 15.30176072 83748
STARLINK-31351          
1 58972U 24031H   25218.27800548 -.00000071  00000+0  97324-5 0  9991
2 58972  53.1597 217.1903 0001210  75.8510 284.2625 15.30194510 83544
STARLINK-31365          
1 58973U 24031J   25218.28433870  .00000037  00000+0  13380-4 0  9993
2 58973  53.1603 217.2319 0001288  89.5582 270.5567 15.30192541 83557
STARLINK-31361          
1 58974U 24031K   25218.28117172 -.00000140  00000+0  74046-5 0  9991
2 58974  53.1599 217.2123 0001259  85.6382 274.4762 15.30196301 83556
STARLINK-31369          
1 58975U 24031L   25218.28750641  .00000266  00000+0  21122-4 0  9990
2 58975  53.1592 217.2498 0001041  82.9223 277.1897 15.30191738 83534
STARLINK-31324          
1 58976U 24031M   25218.29067055  .00000023  00000+0  12917-4 0  9995
2 58976  53.1595 217.2692 0001145  88.7463 271.3669 15.30193902 83537
STARLINK-31358          
1 58977U 24031N   25218.71515610  .00001230  00000+0  53643-4 0  9990
2 58977  53.1594 214.9316 0001400  70.6469 289.4683 15.30198862 83608
STARLINK-31355          
1 58978U 24031P   25218.42447324 -.00001582  00000+0 -41318-4 0  9993
2 58978  53.1591 216.6821 0001139  85.5820 274.5311 15.30184254 83558
STARLINK-31380          
1 58979U 24031Q   25218.68889244 -.00000298  00000+0  20567-5 0  9999
2 58979  53.1591 215.4888 0001218  95.3915 264.7225 15.30193035 83597
STARLINK-31353          
1 58980U 24031R   25218.68678021 -.00000024  00000+0  11305-4 0  9996
2 58980  53.1590 215.4784 0001081  90.9116 269.2009 15.30194948 83599
STARLINK-31339          
1 58981U 24031S   25218.36548678 -.00000863  00000+0 -17020-4 0  9998
2 58981  53.1587 217.0250 0001101  93.4832 266.6295 15.30189891 83542
STARLINK-31384          
1 58983U 24031U   25218.89433157  .00000450  00000+0  27317-4 0  9993
2 58983  53.1583 214.6364 0001105  91.4639 268.6488 15.30193862 83624
STARLINK-31379          
1 58984U 24031V   25218.89855497 -.00000091  00000+0  90702-5 0  9990
2 58984  53.1591 214.6628 0001258  70.2756 289.8381 15.30190060 83625
STARLINK-31385          
1 58985U 24031W   25218.67780227 -.00000076  00000+0  95688-5 0  9996
2 58985  53.1595 213.2501 0001222  86.6223 273.4918 15.30195958 83622
STARLINK-31229          
1 58986U 24031X   25218.38236688 -.00002065  00000+0 -57626-4 0  9992
2 58986  53.1590 217.1283 0001277  92.9510 267.1637 15.30189165 83549
STARLINK-31468          
1 58998U 24036A   25218.84567596  .00000409  00000+0  25928-4 0  9994
2 58998  53.1620 355.7878 0001245  81.8072 278.3070 15.30195782 82445
